NORAD_CAT_ID,OBJECT_NAME,OBJECT_TYPE,EPOCH,MEAN_MOTION,ECCENTRICITY,INCLINATION,RA_OF_ASC_NODE,ARG_OF_PERICENTER,MEAN_ANOMALY,BSTAR,MEAN_MOTION_DOT,MEAN_MOTION_DDOT,TLE_LINE0,TLE_LINE1,TLE_LINE2,SEMIMAJOR_AXIS,PERIOD,APOGEE,PERIGEE,DECAYED
55409.0,STARLINK-5047,PAYLOAD,2024-02-07 18:30:05,14.98324257,0.0002447,70.002,183.1456,250.6885,109.4009,-1.9371e-05,-3.24e-06,0.0,0 STARLINK-5047,1 55409U 23014U   24038.77089942 -.00000324  00000-0 -19371-4 0  9992,2 55409  70.0020 183.1456 0002447 250.6885 109.4009 14.98324257 58071,6950.211,96.107,573.776,570.375,0.0
55409.0,STARLINK-5047,PAYLOAD,2024-02-08 12:07:33,14.98332869,0.0002992,70.0011,181.2936,267.6395,92.4422,1.5107e-05,8.7e-07,0.0,0 STARLINK-5047,1 55409U 23014U   24039.50525299  .00000087  00000-0  15107-4 0  9991,2 55409  70.0011 181.2936 0002992 267.6395  92.4422 14.98332869 57248,6950.184,96.107,574.129,569.97,0.0
55409.0,STARLINK-5047,PAYLOAD,2024-02-08 13:43:41,14.98330903,0.0002956,70.0018,181.1264,265.1783,94.9039,4.2073e-05,4.09e-06,0.0,0 STARLINK-5047,1 55409U 23014U   24039.57201303  .00000409  00000-0  42073-4 0  9995,2 55409  70.0018 181.1264 0002956 265.1783  94.9039 14.98330903 58195,6950.19,96.107,574.11,570.001,0.0
55409.0,STARLINK-5047,PAYLOAD,2024-02-08 18:32:05,14.98335124,0.0002891,70.0013,180.6208,264.2424,95.8405,7.4862e-05,8e-06,0.0,0 STARLINK-5047,1 55409U 23014U   24039.77228917  .00000800  00000-0  74862-4 0  9993,2 55409  70.0013 180.6208 0002891 264.2424  95.8405 14.98335124 58223,6950.177,96.107,574.051,570.033,0.0
55409.0,STARLINK-5047,PAYLOAD,2024-02-09 12:09:34,14.98326305,0.0002463,70.0022,178.7708,250.2229,109.8664,5.6135e-05,5.77e-06,0.0,0 STARLINK-5047,1 55409U 23014U   24040.50665469  .00000577  00000-0  56135-4 0  9997,2 55409  70.0022 178.7708 0002463 250.2229 109.8664 14.98326305 57390,6950.204,96.107,573.781,570.357,0.0
55409.0,STARLINK-5047,PAYLOAD,2024-02-09 13:45:43,14.98326097,0.0002463,70.0022,178.6024,249.7995,110.2899,5.4183e-05,5.54e-06,0.0,0 STARLINK-5047,1 55409U 23014U   24040.57341500  .00000554  00000-0  54183-4 0  9997,2 55409  70.0022 178.6024 0002463 249.7995 110.2899 14.98326097 58343,6950.205,96.107,573.782,570.358,0.0
55409.0,STARLINK-5047,PAYLOAD,2024-02-10 12:11:36,14.98328341,0.0002603,70.002,176.2461,256.9806,103.1062,-4.6923e-05,-6.53e-06,0.0,0 STARLINK-5047,1 55409U 23014U   24041.50805820 -.00000653  00000-0 -46923-4 0  9996,2 55409  70.0020 176.2461 0002603 256.9806 103.1062 14.98328341 57545,6950.198,96.107,573.872,570.254,0.0
55409.0,STARLINK-5047,PAYLOAD,2024-02-10 13:47:44,14.9832769,0.0002614,70.002,176.0778,256.8624,103.2243,-5.3394e-05,-7.3e-06,0.0,0 STARLINK-5047,1 55409U 23014U   24041.57481891 -.00000730  00000-0 -53394-4 0  9997,2 55409  70.0020 176.0778 0002614 256.8624 103.2243 14.98327690 58496,6950.2,96.107,573.882,570.248,0.0
55409.0,STARLINK-5047,PAYLOAD,2024-02-10 18:36:08,14.98327073,0.0002646,70.002,175.573,258.9183,101.1679,-5.7902e-05,-7.84e-06,0.0,0 STARLINK-5047,1 55409U 23014U   24041.77509993 -.00000784  00000-0 -57902-4 0  9991,2 55409  70.0020 175.5730 0002646 258.9183 101.1679 14.98327073 58525,6950.202,96.107,573.906,570.228,0.0
55409.0,STARLINK-5047,PAYLOAD,2024-02-11 12:13:36,14.98331681,0.0002853,70.0017,173.7213,264.46,95.6234,6.2816e-05,6.57e-06,0.0,0 STARLINK-5047,1 55409U 23014U   24042.50945362  .00000657  00000-0  62816-4 0  9994,2 55409  70.0017 173.7213 0002853 264.4600  95.6234 14.98331681 57694,6950.188,96.107,574.036,570.07,0.0
55409.0,STARLINK-5047,PAYLOAD,2024-02-11 13:49:44,14.98332154,0.0002836,70.0017,173.5531,263.9749,96.1087,6.8891e-05,7.29e-06,0.0,0 STARLINK-5047,1 55409U 23014U   24042.57621314  .00000729  00000-0  68891-4 0  9998,2 55409  70.0017 173.5531 0002836 263.9749  96.1087 14.98332154 58648,6950.186,96.107,574.022,570.08,0.0
55409.0,STARLINK-5047,PAYLOAD,2024-02-11 18:38:08,14.98337925,0.0002725,70.002,173.0493,258.8537,101.2316,0.00013511,1.52e-05,0.0,0 STARLINK-5047,1 55409U 23014U   24042.77648685  .00001520  00000-0  13511-3 0  9998,2 55409  70.0020 173.0493 0002725 258.8537 101.2316 14.98337925 57732,6950.168,96.106,573.927,570.139,0.0
55409.0,STARLINK-5047,PAYLOAD,2024-02-12 12:15:37,14.98327835,0.0002361,70.0026,171.1957,251.8081,108.2822,0.00011133,1.236e-05,0.0,0 STARLINK-5047,1 55409U 23014U   24043.51085276  .00001236  00000-0  11133-3 0  9994,2 55409  70.0026 171.1957 0002361 251.8081 108.2822 14.98327835 57845,6950.2,96.107,573.706,570.424,0.0
55409.0,STARLINK-5047,PAYLOAD,2024-02-12 13:51:45,14.98330759,0.0002023,70.0028,171.0273,241.6198,118.4758,5.1278e-05,5.19e-06,0.0,0 STARLINK-5047,1 55409U 23014U   24043.57761287  .00000519  00000-0  51278-4 0  9991,2 55409  70.0028 171.0273 0002023 241.6198 118.4758 14.98330759 58793,6950.191,96.107,573.462,570.65,0.0
55409.0,STARLINK-5047,PAYLOAD,2024-02-12 18:40:09,14.98361102,0.0002142,70.0026,170.5226,240.0861,120.0086,-0.00043534,-5.287e-05,0.0,0 STARLINK-5047,1 55409U 23014U   24043.77788393 -.00005287  00000-0 -43534-3 0  9994,2 55409  70.0026 170.5226 0002142 240.0861 120.0086 14.98361102 57883,6950.097,96.105,573.45,570.473,0.0
55409.0,STARLINK-5047,PAYLOAD,2024-02-13 12:17:38,14.98326587,0.0002466,70.0028,168.6711,245.1236,114.9666,-4.2227e-05,-5.97e-06,0.0,0 STARLINK-5047,1 55409U 23014U   24044.51225623 -.00000597  00000-0 -42227-4 0  9997,2 55409  70.0028 168.6711 0002466 245.1236 114.9666 14.98326587 57999,6950.203,96.107,573.782,570.355,0.0
55409.0,STARLINK-5047,PAYLOAD,2024-02-13 18:42:10,14.98337926,0.0002357,70.0029,167.9976,250.3571,109.7334,-0.00017742,-2.21e-05,0.0,0 STARLINK-5047,1 55409U 23014U   24044.77929291 -.00002210  00000-0 -17742-3 0  9994,2 55409  70.0029 167.9976 0002357 250.3571 109.7334 14.98337926 58033,6950.168,96.106,573.672,570.395,0.0
55409.0,STARLINK-5047,PAYLOAD,2024-02-14 13:55:47,14.98329343,0.0002693,70.0013,165.9765,259.1456,100.9401,-3.5168e-06,-1.35e-06,0.0,0 STARLINK-5047,1 55409U 23014U   24045.58041297 -.00000135  00000-0 -35168-5 0  9993,2 55409  70.0013 165.9765 0002693 259.1456 100.9401 14.98329343 59091,6950.195,96.107,573.932,570.188,0.0
55409.0,STARLINK-5047,PAYLOAD,2024-02-14 17:08:03,14.98329147,0.0002731,70.0015,165.6401,260.8232,99.2618,-2.221e-05,-3.58e-06,0.0,0 STARLINK-5047,1 55409U 23014U   24045.71393373 -.00000358  00000-0 -22210-4 0  9993,2 55409  70.0015 165.6401 0002731 260.8232  99.2618 14.98329147 59116,6950.196,96.107,573.959,570.162,0.0
55409.0,STARLINK-5047,PAYLOAD,2024-02-15 01:08:44,14.98331832,0.000313,70.0006,164.801,270.8743,89.2057,-0.00010287,-1.32e-05,0.0,0 STARLINK-5047,1 55409U 23014U   24046.04773368 -.00001320  00000-0 -10287-3 0  9996,2 55409  70.0006 164.8010 0003130 270.8743  89.2057 14.98331832 58226,6950.187,96.107,574.228,569.877,0.0
55409.0,STARLINK-5047,PAYLOAD,2024-02-15 10:45:33,14.98321929,0.0003227,70.0013,163.792,280.8795,79.2,1.2423e-05,5.5e-07,0.0,0 STARLINK-5047,1 55409U 23014U   24046.44830003  .00000055  00000-0  12423-4 0  9997,2 55409  70.0013 163.7920 0003227 280.8795  79.2000 14.98321929 58286,6950.218,96.108,574.326,569.84,0.0
55409.0,STARLINK-5047,PAYLOAD,2024-02-15 13:57:49,14.98321456,0.0003178,70.0012,163.4552,279.1755,80.9044,7.1353e-06,-8e-08,0.0,0 STARLINK-5047,1 55409U 23014U   24046.58182105 -.00000008  00000-0  71353-5 0  9992,2 55409  70.0012 163.4552 0003178 279.1755  80.9044 14.98321456 59244,6950.219,96.108,574.293,569.876,0.0
55409.0,STARLINK-5047,PAYLOAD,2024-02-15 17:10:05,14.98325717,0.0002879,70.0014,163.1169,274.3423,85.7407,5.0573e-05,5.1e-06,0.0,0 STARLINK-5047,1 55409U 23014U   24046.71533707  .00000510  00000-0  50573-4 0  9992,2 55409  70.0014 163.1169 0002879 274.3423  85.7407 14.98325717 59265,6950.206,96.107,574.072,570.07,0.0
55409.0,STARLINK-5047,PAYLOAD,2024-02-16 12:23:41,14.98329767,0.0002884,70.0014,161.0971,271.9406,88.1423,6.4651e-05,6.79e-06,0.0,0 STARLINK-5047,1 55409U 23014U   24047.51645387  .00000679  00000-0  64651-4 0  9997,2 55409  70.0014 161.0971 0002884 271.9406  88.1423 14.98329767 58446,6950.194,96.107,574.063,570.054,0.0
55409.0,STARLINK-5047,PAYLOAD,2024-02-16 13:59:48,14.9834946,0.0003082,70.0011,160.9272,269.6119,90.4687,0.00027359,3.175e-05,0.0,0 STARLINK-5047,1 55409U 23014U   24047.58319584  .00003175  00000-0  27359-3 0  9998,2 55409  70.0011 160.9272 0003082 269.6119  90.4687 14.98349460 59396,6950.133,96.106,574.14,569.856,0.0
55409.0,STARLINK-5047,PAYLOAD,2024-02-16 17:12:05,14.98336943,0.0002755,70.0012,160.5907,265.878,94.2064,0.00012191,1.362e-05,0.0,0 STARLINK-5047,1 55409U 23014U   24047.71672677  .00001362  00000-0  12191-3 0  9992,2 55409  70.0012 160.5907 0002755 265.8780  94.2064 14.98336943 58477,6950.171,96.107,573.951,570.122,0.0
55409.0,STARLINK-5047,PAYLOAD,2024-02-17 10:49:34,14.98323362,0.0002601,70.003,158.7418,264.734,95.3522,9.5453e-06,2.1e-07,0.0,0 STARLINK-5047,1 55409U 23014U   24048.45109951  .00000021  00000-0  95453-5 0  9999,2 55409  70.0030 158.7418 0002601 264.7340  95.3522 14.98323362 58587,6950.213,96.107,573.886,570.271,0.0
55409.0,STARLINK-5047,PAYLOAD,2024-02-17 14:01:51,14.98323973,0.0002521,70.003,158.406,259.2903,100.7972,8.6434e-06,1e-07,0.0,0 STARLINK-5047,1 55409U 23014U   24048.58461942  .00000010  00000-0  86434-5 0  9991,2 55409  70.0030 158.4060 0002521 259.2903 100.7972 14.98323973 59547,6950.212,96.107,573.829,570.324,0.0
55409.0,STARLINK-5047,PAYLOAD,2024-02-17 17:14:07,14.98325777,0.0002931,70.0016,158.0679,266.7597,93.3226,1.0437e-05,3.2e-07,0.0,0 STARLINK-5047,1 55409U 23014U   24048.71813854  .00000032  00000-0  10437-4 0  9992,2 55409  70.0016 158.0679 0002931 266.7597  93.3226 14.98325777 59565,6950.206,96.107,574.108,570.034,0.0
55409.0,STARLINK-5047,PAYLOAD,2024-02-18 10:51:35,14.98339628,0.0003138,70.0009,156.2154,269.4911,90.5888,-1.5862e-05,-2.82e-06,0.0,0 STARLINK-5047,1 55409U 23014U   24049.45248946 -.00000282  00000-0 -15862-4 0  9994,2 55409  70.0009 156.2154 0003138 269.4911  90.5888 14.98339628 58736,6950.163,96.106,574.209,569.847,0.0
